STARLINK-32483          
1 61856U 24202M   26068.52349862  .00000449  00000+0  25849-4 0  9995
2 61856  43.0034 238.8052 0001323 272.4638  87.6062 15.27569381 75313
2025-313BC              
1 67298U 25313BC  26068.18968176  .00075331  00000+0  26410-2 0  9997
2 67298  97.3985 144.8110 0008478 328.9209  31.1528 15.29126358  7890
